IRIDIUM 166             
1 43570U 18061B   24141.19030306  .00000679  00000+0  23533-3 0  9999
2 43570  86.3999  13.5135 0001953  84.3232 275.8187 14.34213631304758
IRIDIUM 158             
1 43571U 18061C   24141.15857803  .00000572  00000+0  19705-3 0  9993
2 43571  86.3994  13.5360 0002099  88.1964 271.9473 14.34215582304729
IRIDIUM 165             
1 43572U 18061D   24141.46303293  .00000571  00000+0  19699-3 0  9998
2 43572  86.4001  13.4407 0002165  89.5714 270.5730 14.34212418304785
IRIDIUM 155             
1 43573U 18061E   24141.14590651  .00000656  00000+0  22705-3 0  9996
2 43573  86.3997  13.4802 0001936  83.1817 276.9599 14.34219713304718
IRIDIUM 154             
1 43574U 18061F   24141.12687361  .00000238  00000+0  77912-4 0  9997
2 43574  86.4001  13.5845 0002427  85.2131 274.9341 14.34211261304759
IRIDIUM 163             
1 43575U 18061G   24141.17761290  .00000249  00000+0  81775-4 0  9991
2 43575  86.3999  13.5024 0002197  85.5819 274.5627 14.34215359304737
IRIDIUM 156             
1 43576U 18061H   24141.15224487  .00000695  00000+0  24122-3 0  9999
2 43576  86.3998  13.5190 0002031  85.9053 274.2375 14.34213846304716
IRIDIUM 164             
1 43577U 18061J   24140.57506541  .00000637  00000+0  22050-3 0  9993
2 43577  86.4001  13.7889 0002410  90.5394 269.6078 14.34213877304689
